HST                     
1 20580U 90037B   25022.15491179  .00012566  00000+0  51700-3 0  9997
2 20580  28.4690 312.9466 0002431 279.4179  80.6140 15.22570831710388
POLAR                   
1 23802U 96013A   25021.62495797  .00000280  00000+0  00000+0 0  9991
2 23802  79.3056 232.5241 6009142 226.3338  64.8203  1.29846629138210
SWAS                    
1 25560U 98071A   25022.50564148  .00009413  00000+0  68286-3 0  9996
2 25560  69.8976  99.4398 0009470 306.5130  53.5158 15.04149101420329
CXO                     
1 25867U 99040B   25023.99516665  .00000689  00000+0  00000+0 0  9990
2 25867  46.2215 137.3609 8627046 306.4572   0.5200  0.37805238 15402
XMM-NEWTON              
1 25989U 99066A   25023.78688223  .00000159  00000+0  00000+0 0  9992
2 25989  66.8932 289.8017 4949946  73.6341   0.1084  0.50137860 34812
TERRA                   
1 25994U 99068A   25022.46359986  .00001280  00000+0  27356-3 0  9998
2 25994  98.0205  85.2561 0003205  56.9305  67.8701 14.60413655335049
CLUSTER II-FM7 (SAMBA)  
1 26410U 00041A   25024.20332971  .00001920  00000+0  00000+0 0  9998
2 26410 142.1330   5.0874 8033491 220.3251 359.2849  0.44813590 29786
CLUSTER II-FM5 (RUMBA)  
1 26463U 00045A   25023.30281161  .00009890  00000+0  00000+0 0  9998
2 26463 153.7088  49.0325 8940160 266.0589 359.3575  0.42904492 17933
CLUSTER II-FM8 (TANGO)  
1 26464U 00045B   25022.33734217  .00001882  00000+0  00000+0 0  9999
2 26464 142.3261   5.3098 8035099 220.4074 359.2187  0.44417503 18036
ODIN                    
1 26702U 01007A   25022.52159834  .00026538  00000+0  83360-3 0  9999
2 26702  97.4633  44.1375 0005397 207.8487 152.2467 15.32966711310388
TIMED                   
1 26998U 01055B   25022.47303486  .00003798  00000+0  36746-3 0  9996
2 26998  74.0694 181.8155 0001162 210.5740 149.5376 14.93143275254537
INTEGRAL                
1 27540U 02048A   25021.30275670 -.00000327  00000+0  00000+0 0  9993
2 27540  90.7506  10.8172 8614178 275.6255  31.7143  0.37576136 24703
CORIOLIS                
1 27640U 03001A   25022.49880229  .00000386  00000+0  20330-3 0  9993
2 27640  98.7147  32.2446 0013152 241.7546 118.2303 14.19697000141752
SORCE                   
1 27651U 03004A   25022.13653688  .00007980  00000+0  66098-3 0  9994
2 27651  39.9922 287.5121 0020566 339.7575  20.2401 14.98692534195062
MOST                    
1 27843U 03031D   25022.45451156  .00000310  00000+0  16285-3 0  9991
2 27843  98.7077  32.3044 0008872 289.1879  70.8337 14.21136852118167
SCISAT 1                
1 27858U 03036A   25022.18920837  .00002131  00000+0  28441-3 0  9999
2 27858  73.9313 105.8205 0008960 285.9180  74.1008 14.80253257155801
SWIFT                   
1 28485U 04047A   25022.32358489  .00033145  00000+0  10763-2 0  9999
2 28485  20.5564  40.2634 0006737 246.8392 113.1337 15.30117209107654
CALIPSO                 
1 29108U 06016B   25022.49558600  .00003701  00000+0  66216-3 0  9995
2 29108  98.4399  16.3393 0001765  86.6177 273.5228 14.67492047998091
HINODE (SOLAR-B)        
1 29479U 06041A   25022.50091235  .00001825  00000+0  33008-3 0  9990
2 29479  98.0808  40.8131 0019014 106.1128 254.2171 14.67466626979934
SHIJIAN-6 02A (SJ-6 02A)
1 29505U 06046A   25022.42381375  .00013265  00000+0  85037-3 0  9993
2 29505  97.7017  55.5580 0005179  92.5879 267.5942 15.08634469995020
SHIJIAN-6 02B (SJ-6 02B)
1 29506U 06046B   25022.45536828  .00002994  00000+0  25217-3 0  9993
2 29506  97.7212  51.3077 0001512 308.8088  51.3000 14.98972980994153
FGRST (GLAST)           
1 33053U 08029A   25022.49829921  .00006544  00000+0  28239-3 0  9993
2 33053  25.5815 139.8674 0010297  79.1491 281.0205 15.19747299917942
SDO                     
1 36395U 10005A   25022.21065742 -.00000077  00000+0  00000+0 0  9993
2 36395  33.5785  94.1816 0001629 199.7701 161.3972  1.00269192 54941
CRYOSAT 2               
1 36508U 10013A   25022.45298715  .00000667  00000+0  16475-3 0  9993
2 36508  92.0186 154.0175 0000880 108.7487 251.3816 14.51910511783972
X-SAT                   
1 37389U 11015C   25022.50946012  .00000452  00000+0  21039-3 0  9994
2 37389  98.3034  20.5431 0014954  46.4175 313.8244 14.24937273714946
GCOM-W1 (SHIZUKU)       
1 38337U 12025A   25022.28415020  .00001852  00000+0  42105-3 0  9997
2 38337  98.2267 325.2401 0001086  81.9891  52.4179 14.57120963674630
NUSTAR                  
1 38358U 12031A   25022.50001157  .00002852  00000+0  15580-3 0  9992
2 38358   6.0257 244.2056 0007871 107.7954 167.9360 15.01213392  1301
NEOSSAT                 
1 39089U 13009D   25022.49406161  .00000569  00000+0  21281-3 0  9990
2 39089  98.4019 210.1603 0010551 334.1568  25.9090 14.35478463623468
BRITE-AUSTRIA           
1 39091U 13009F   25022.46324637  .00000638  00000+0  23332-3 0  9993
2 39091  98.3828 210.0707 0009712 330.8013  29.2629 14.36159718623732
IRIS                    
1 39197U 13033A   25022.47429625  .00004652  00000+0  56490-3 0  9992
2 39197  97.9548 218.1663 0025032 184.8462 175.2513 14.83798300624587
HISAKI (SPRINT-A)       
1 39253U 13049A   25022.13997811  .00000182  00000+0  15549-3 0  9996
2 39253  29.7209 298.0544 0137065 193.9436 165.7326 13.55464798562030
CASSIOPE                
1 39265U 13055A   25022.45637037  .00045296  00000+0  80365-3 0  9995
2 39265  80.9480 308.6435 0429004 297.7852  58.0485 14.87727828590787
STSAT-3                 
1 39422U 13066G   25022.48417209  .00008301  00000+0  70290-3 0  9994
2 39422  97.5481 359.8191 0019256 350.5874   9.4986 14.98105018607610
SWARM B                 
1 39451U 13067A   25022.45431203  .00008738  00000+0  36360-3 0  9998
2 39451  87.7506 136.8977 0002335  96.6966 263.4546 15.23626073605346
SWARM A                 
1 39452U 13067B   25022.46505152  .00013643  00000+0  35719-3 0  9993
2 39452  87.3376 243.7708 0002642  78.5164 281.6387 15.38589443627409
SWARM C                 
1 39453U 13067C   25022.46498612  .00013844  00000+0  36246-3 0  9995
2 39453  87.3376 242.3604 0002618  78.0489 282.1058 15.38587746627368
BRITE-CA1 (TORONTO)     
1 40020U 14033L   25022.24608431  .00003419  00000+0  53721-3 0  9993
2 40020  97.9026 158.3000 0082134 111.8832 249.1134 14.70956864567169
OCO 2                   
1 40059U 14035A   25022.46001891  .00001576  00000+0  36027-3 0  9990
2 40059  98.2268 326.1591 0001253  98.1018 262.0323 14.57054941561673
BRITE-PL2 (HEWELIUSZ)   
1 40119U 14049B   25022.33547221  .00004968  00000+0  50263-3 0  9996
2 40119  97.8841 127.4700 0015139   6.4668 353.6743 14.91361838565218
RESURS-P 2              
1 40360U 14087A   25022.47101760  .00371762  64746-4  55502-3 0  9997
2 40360  97.1193 120.9558 0001914 217.5358 142.5790 16.04814466564026
MMS 1                   
1 40482U 15011A   25022.50001157 -.00001670  00000+0  00000+0 0  9999
2 40482  59.5532 359.6057 8889218 155.8948 275.6196  0.28502702  1360
MMS 2                   
1 40483U 15011B   25022.50001157 -.00001672  00000+0  00000+0 0  9992
2 40483  59.5521 359.6052 8894656 155.8896 274.3111  0.28512345  1365
MMS 3                   
1 40484U 15011C   25022.50001157 -.00001672  00000+0  00000+0 0  9993
2 40484  59.5536 359.6039 8893601 155.8894 274.5605  0.28510668  1360
MMS 4                   
1 40485U 15011D   25020.83334491 -.00001596  00000+0  00000+0 0  9993
2 40485  59.4730 359.6651 8891677 155.8428  93.7746  0.28494608  1340
ASTROSAT                
1 40930U 15052A   25022.22492580  .00003648  00000+0  37811-3 0  9995
2 40930   5.9958 228.9277 0008965 300.7948  59.1297 14.80753579503910
DAMPE                   
1 41173U 15078A   25022.46214582  .00003258  00000+0  11928-3 0  9991
2 41173  97.4434  21.4950 0014337  87.5004 272.7877 15.28674030506469
PISAT                   
1 41784U 16059B   25022.50135984  .00003026  00000+0  54085-3 0  9996
2 41784  97.8234  40.5455 0030781  37.9759 322.3608 14.67297236444802
HXMT (HUIYAN)           
1 42758U 17034A   25022.47978833  .00014992  00000+0  67164-3 0  9992
2 42758  43.0124 135.5568 0009769  74.8648 285.3281 15.21023580420151
FLYING LAPTOP           
1 42831U 17042G   25022.46962746  .00005835  00000+0  50388-3 0  9994
2 42831  97.3903 197.1806 0012897  60.0265 300.2236 14.97530914409922
ZHANGHENG 1 (CSES)      
1 43194U 18015C   25022.50329582  .00024370  00000+0  11009-2 0  9999
2 43194  97.6285 174.7311 0007356 162.7560 197.3926 15.20933404387020
SALSAT                  
1 46495U 20068K   25022.47779611  .00015000  00000+0  71315-3 0  9992
2 46495  97.8449 354.6077 0010391 282.9848  77.0225 15.19257133237538
IXPE                    
1 49954U 21121A   25022.50001157  .00011954  00000+0  80033-3 0  9994
2 49954   0.2280 200.1873 0008534 312.0881 354.2857 15.02976999  5892
